{"fetched_at":"2026-07-17T06:38:18.454Z","source":"https://celestrak.org/NORAD/elements/gp.php?NAME=HULIANWANG&FORMAT=JSON","constellation":"guowang","records":[{"OBJECT_NAME":"HULIANWANG JISHU SHIYAN A","OBJECT_ID":"2023-095A","EPOCH":"2026-07-16T20:03:59.821056","CLASSIFICATION_TYPE":"U","MEAN_MOTION":13.39544365,"ECCENTRICITY":0.0019509,"INCLINATION":86.5045,"RA_OF_ASC_NODE":354.5105,"ARG_OF_PERICENTER":107.0829,"MEAN_ANOMALY":253.2452,"EPHEMERIS_TYPE":0,"NORAD_CAT_ID":57288,"ELEMENT_SET_NO":999,"REV_AT_EPOCH":14772,"BSTAR":0.000004559,"MEAN_MOTION_DOT":1.8e-7,"MEAN_MOTION_DDOT":0},{"OBJECT_NAME":"HULIANWANG JISHU SHIYAN B","OBJECT_ID":"2023-095B","EPOCH":"2026-07-16T19:51:44.124192","CLASSIFICATION_TYPE":"U","MEAN_MOTION":13.3955302,"ECCENTRICITY":0.0018101,"INCLINATION":86.5047,"RA_OF_ASC_NODE":354.5228,"ARG_OF_PERICENTER":105.1845,"MEAN_ANOMALY":255.1301,"EPHEMERIS_TYPE":0,"NORAD_CAT_ID":57289,"ELEMENT_SET_NO":999,"REV_AT_EPOCH":14772,"BSTAR":0.000014251,"MEAN_MOTION_DOT":2.3e-7,"MEAN_MOTION_DDOT":0},{"OBJECT_NAME":"HULIANWANG JISHU SHIYAN 4A","OBJECT_ID":"2023-212A","EPOCH":"2026-07-16T17:28:52.379328","CLASSIFICATION_TYPE":"U","MEAN_MOTION":13.4145912,"ECCENTRICITY":0.0001235,"INCLINATION":49.9988,"RA_OF_ASC_NODE":235.5125,"ARG_OF_PERICENTER":224.9247,"MEAN_ANOMALY":135.153,"EPHEMERIS_TYPE":0,"NORAD_CAT_ID":58691,"ELEMENT_SET_NO":999,"REV_AT_EPOCH":12521,"BSTAR":0.000053937,"MEAN_MOTION_DOT":-9.8e-7,"MEAN_MOTION_DDOT":0},{"OBJECT_NAME":"HULIANWANG JISHU SHIYAN 4B","OBJECT_ID":"2023-212B","EPOCH":"2026-07-16T19:06:29.119968","CLASSIFICATION_TYPE":"U","MEAN_MOTION":13.41460252,"ECCENTRICITY":0.0001387,"INCLINATION":49.9957,"RA_OF_ASC_NODE":235.6214,"ARG_OF_PERICENTER":214.8165,"MEAN_ANOMALY":145.2622,"EPHEMERIS_TYPE":0,"NORAD_CAT_ID":58692,"ELEMENT_SET_NO":999,"REV_AT_EPOCH":12522,"BSTAR":0.000050247,"MEAN_MOTION_DOT":-0.000001,"MEAN_MOTION_DDOT":0},{"OBJECT_NAME":"HULIANWANG JISHU SHIYAN 4C","OBJECT_ID":"2023-212C","EPOCH":"2026-07-16T17:23:52.667232","CLASSIFICATION_TYPE":"U","MEAN_MOTION":13.41462093,"ECCENTRICITY":0.0001233,"INCLINATION":49.997,"RA_OF_ASC_NODE":236.0095,"ARG_OF_PERICENTER":203.7424,"MEAN_ANOMALY":156.3397,"EPHEMERIS_TYPE":0,"NORAD_CAT_ID":58693,"ELEMENT_SET_NO":999,"REV_AT_EPOCH":12522,"BSTAR":0.000059454,"MEAN_MOTION_DOT":-9.5e-7,"MEAN_MOTION_DDOT":0},{"OBJECT_NAME":"HULIANWANG DIGUI-01","OBJECT_ID":"2024-240A","EPOCH":"2026-07-16T20:09:24.953760","CLASSIFICATION_TYPE":"U","MEAN_MOTION":13.24411569,"ECCENTRICITY":0.000198,"INCLINATION":86.5021,"RA_OF_ASC_NODE":333.2341,"ARG_OF_PERICENTER":105.2118,"MEAN_ANOMALY":254.9235,"EPHEMERIS_TYPE":0,"NORAD_CAT_ID":62323,"ELEMENT_SET_NO":999,"REV_AT_EPOCH":7656,"BSTAR":0.0000094482,"MEAN_MOTION_DOT":1.9e-7,"MEAN_MOTION_DDOT":0},{"OBJECT_NAME":"HULIANWANG DIGUI-02","OBJECT_ID":"2024-240B","EPOCH":"2026-07-16T20:20:09.559104","CLASSIFICATION_TYPE":"U","MEAN_MOTION":13.24411501,"ECCENTRICITY":0.0001952,"INCLINATION":86.505,"RA_OF_ASC_NODE":333.3992,"ARG_OF_PERICENTER":105.6359,"MEAN_ANOMALY":254.4991,"EPHEMERIS_TYPE":0,"NORAD_CAT_ID":62324,"ELEMENT_SET_NO":999,"REV_AT_EPOCH":7657,"BSTAR":0.00003399,"MEAN_MOTION_DOT":2.9e-7,"MEAN_MOTION_DDOT":0},{"OBJECT_NAME":"HULIANWANG DIGUI-03","OBJECT_ID":"2024-240C","EPOCH":"2026-07-16T19:58:30.643104","CLASSIFICATION_TYPE":"U","MEAN_MOTION":13.24410151,"ECCENTRICITY":0.0002017,"INCLINATION":86.5003,"RA_OF_ASC_NODE":333.1338,"ARG_OF_PERICENTER":103.613,"MEAN_ANOMALY":256.5229,"EPHEMERIS_TYPE":0,"NORAD_CAT_ID":62325,"ELEMENT_SET_NO":999,"REV_AT_EPOCH":7656,"BSTAR":-0.000021434,"MEAN_MOTION_DOT":5e-8,"MEAN_MOTION_DDOT":0},{"OBJECT_NAME":"HULIANWANG DIGUI-04","OBJECT_ID":"2024-240D","EPOCH":"2026-07-16T19:47:39.397056","CLASSIFICATION_TYPE":"U","MEAN_MOTION":13.24410422,"ECCENTRICITY":0.0002142,"INCLINATION":86.5013,"RA_OF_ASC_NODE":333.1799,"ARG_OF_PERICENTER":103.309,"MEAN_ANOMALY":256.8283,"EPHEMERIS_TYPE":0,"NORAD_CAT_ID":62326,"ELEMENT_SET_NO":999,"REV_AT_EPOCH":7656,"BSTAR":-0.00003517,"MEAN_MOTION_DOT":0,"MEAN_MOTION_DDOT":0},{"OBJECT_NAME":"HULIANWANG DIGUI-05","OBJECT_ID":"2024-240E","EPOCH":"2026-07-16T19:36:46.782432","CLASSIFICATION_TYPE":"U","MEAN_MOTION":13.2441111,"ECCENTRICITY":0.0002182,"INCLINATION":86.5065,"RA_OF_ASC_NODE":333.4691,"ARG_OF_PERICENTER":101.1213,"MEAN_ANOMALY":259.0166,"EPHEMERIS_TYPE":0,"NORAD_CAT_ID":62327,"ELEMENT_SET_NO":999,"REV_AT_EPOCH":7656,"BSTAR":-0.000013766,"MEAN_MOTION_DOT":9e-8,"MEAN_MOTION_DDOT":0},{"OBJECT_NAME":"HULIANWANG DIGUI-06","OBJECT_ID":"2024-240F","EPOCH":"2026-07-16T19:15:01.592928","CLASSIFICATION_TYPE":"U","MEAN_MOTION":13.24408587,"ECCENTRICITY":0.0002127,"INCLINATION":86.5003,"RA_OF_ASC_NODE":333.1129,"ARG_OF_PERICENTER":107.6044,"MEAN_ANOMALY":252.5323,"EPHEMERIS_TYPE":0,"NORAD_CAT_ID":62328,"ELEMENT_SET_NO":999,"REV_AT_EPOCH":7656,"BSTAR":0.000035289,"MEAN_MOTION_DOT":3e-7,"MEAN_MOTION_DDOT":0},{"OBJECT_NAME":"HULIANWANG DIGUI-07","OBJECT_ID":"2024-240G","EPOCH":"2026-07-16T19:04:07.385088","CLASSIFICATION_TYPE":"U","MEAN_MOTION":13.24411016,"ECCENTRICITY":0.0002031,"INCLINATION":86.4973,"RA_OF_ASC_NODE":332.9456,"ARG_OF_PERICENTER":105.4411,"MEAN_ANOMALY":254.6947,"EPHEMERIS_TYPE":0,"NORAD_CAT_ID":62329,"ELEMENT_SET_NO":999,"REV_AT_EPOCH":7656,"BSTAR":0.000046868,"MEAN_MOTION_DOT":3.5e-7,"MEAN_MOTION_DDOT":0},{"OBJECT_NAME":"HULIANWANG DIGUI-08","OBJECT_ID":"2024-240H","EPOCH":"2026-07-16T19:25:53.834304","CLASSIFICATION_TYPE":"U","MEAN_MOTION":13.24411392,"ECCENTRICITY":0.000225,"INCLINATION":86.5057,"RA_OF_ASC_NODE":333.4181,"ARG_OF_PERICENTER":100.9815,"MEAN_ANOMALY":259.1572,"EPHEMERIS_TYPE":0,"NORAD_CAT_ID":62330,"ELEMENT_SET_NO":999,"REV_AT_EPOCH":7656,"BSTAR":0.000019975,"MEAN_MOTION_DOT":2.3e-7,"MEAN_MOTION_DDOT":0},{"OBJECT_NAME":"HULIANWANG DIGUI-09","OBJECT_ID":"2024-240J","EPOCH":"2026-07-16T20:42:02.376000","CLASSIFICATION_TYPE":"U","MEAN_MOTION":13.24409962,"ECCENTRICITY":0.0001999,"INCLINATION":86.5022,"RA_OF_ASC_NODE":333.2516,"ARG_OF_PERICENTER":103.8171,"MEAN_ANOMALY":256.3186,"EPHEMERIS_TYPE":0,"NORAD_CAT_ID":62331,"ELEMENT_SET_NO":999,"REV_AT_EPOCH":7656,"BSTAR":0.000058819,"MEAN_MOTION_DOT":4e-7,"MEAN_MOTION_DDOT":0},{"OBJECT_NAME":"HULIANWANG DIGUI-10","OBJECT_ID":"2024-240K","EPOCH":"2026-07-16T20:31:09.935904","CLASSIFICATION_TYPE":"U","MEAN_MOTION":13.24410768,"ECCENTRICITY":0.0002084,"INCLINATION":86.5053,"RA_OF_ASC_NODE":333.4157,"ARG_OF_PERICENTER":106.3308,"MEAN_ANOMALY":253.8055,"EPHEMERIS_TYPE":0,"NORAD_CAT_ID":62332,"ELEMENT_SET_NO":999,"REV_AT_EPOCH":7656,"BSTAR":0.00004893,"MEAN_MOTION_DOT":3.6e-7,"MEAN_MOTION_DDOT":0},{"OBJECT_NAME":"HULIANWANG DIGUI-11","OBJECT_ID":"2025-030A","EPOCH":"2026-07-16T20:32:49.161984","CLASSIFICATION_TYPE":"U","MEAN_MOTION":13.29324518,"ECCENTRICITY":0.0000975,"INCLINATION":50,"RA_OF_ASC_NODE":129.4061,"ARG_OF_PERICENTER":278.5822,"MEAN_ANOMALY":81.494,"EPHEMERIS_TYPE":0,"NORAD_CAT_ID":62971,"ELEMENT_SET_NO":999,"REV_AT_EPOCH":6980,"BSTAR":0.000052098,"MEAN_MOTION_DOT":-0.000001,"MEAN_MOTION_DDOT":0}]}
