HULIANWANG JISHU SHIYAN*
1 57288U 23095A   26197.83610904  .00000018  00000+0  45590-5 0  9991
2 57288  86.5045 354.5105 0019509 107.0829 253.2452 13.39544365147721
HULIANWANG JISHU SHIYAN*
1 57289U 23095B   26197.82759403  .00000023  00000+0  14251-4 0  9994
2 57289  86.5047 354.5228 0018101 105.1845 255.1301 13.39553020147726
HULIANWANG JISHU SHIYAN*
1 58691U 23212A   26197.72838402 -.00000098  00000+0  53937-4 0  9996
2 58691  49.9988 235.5125 0001235 224.9247 135.1530 13.41459120125211
HULIANWANG JISHU SHIYAN*
1 58692U 23212B   26197.79617037 -.00000100  00000+0  50247-4 0  9998
2 58692  49.9957 235.6214 0001387 214.8165 145.2622 13.41460252125226
HULIANWANG JISHU SHIYAN*
1 58693U 23212C   26197.72491513 -.00000095  00000+0  59454-4 0  9993
2 58693  49.9970 236.0095 0001233 203.7424 156.3397 13.41462093125226
HULIANWANG DIGUI-01     
1 62323U 24240A   26197.83987215  .00000019  00000+0  94482-5 0  9997
2 62323  86.5021 333.2341 0001980 105.2118 254.9235 13.24411569 76565
HULIANWANG DIGUI-02     
1 62324U 24240B   26197.84733286  .00000029  00000+0  33990-4 0  9993
2 62324  86.5050 333.3992 0001952 105.6359 254.4991 13.24411501 76572
HULIANWANG DIGUI-03     
1 62325U 24240C   26197.83229911  .00000005  00000+0 -21434-4 0  9993
2 62325  86.5003 333.1338 0002017 103.6130 256.5229 13.24410151 76567
HULIANWANG DIGUI-04     
1 62326U 24240D   26197.82476154  .00000000  00000+0 -35170-4 0  9993
2 62326  86.5013 333.1799 0002142 103.3090 256.8283 13.24410422 76565
HULIANWANG DIGUI-05     
1 62327U 24240E   26197.81720813  .00000009  00000+0 -13766-4 0  9993
2 62327  86.5065 333.4691 0002182 101.1213 259.0166 13.24411110 76564
HULIANWANG DIGUI-06     
1 62328U 24240F   26197.80210177  .00000030  00000+0  35289-4 0  9997
2 62328  86.5003 333.1129 0002127 107.6044 252.5323 13.24408587 76569
HULIANWANG DIGUI-07     
1 62329U 24240G   26197.79452992  .00000035  00000+0  46868-4 0  9999
2 62329  86.4973 332.9456 0002031 105.4411 254.6947 13.24411016 76569
HULIANWANG DIGUI-08     
1 62330U 24240H   26197.80965086  .00000023  00000+0  19975-4 0  9992
2 62330  86.5057 333.4181 0002250 100.9815 259.1572 13.24411392 76568
HULIANWANG DIGUI-09     
1 62331U 24240J   26197.86252750  .00000040  00000+0  58819-4 0  9995
2 62331  86.5022 333.2516 0001999 103.8171 256.3186 13.24409962 76567
HULIANWANG DIGUI-10     
1 62332U 24240K   26197.85497611  .00000036  00000+0  48930-4 0  9990
2 62332  86.5053 333.4157 0002084 106.3308 253.8055 13.24410768 76564
HULIANWANG DIGUI-11     
1 62971U 25030A   26197.85612456 -.00000100  00000+0  52098-4 0  9996
2 62971  50.0000 129.4061 0000975 278.5822  81.4940 13.29324518 69807
